{"fetched_at":"2026-07-16T17:46:01.774Z","source":"https://celestrak.org/NORAD/elements/gp.php?GROUP=iridium-NEXT&FORMAT=JSON","constellation":"iridium","records":[{"OBJECT_NAME":"IRIDIUM 159","OBJECT_ID":"2018-061K","EPOCH":"2026-07-16T02:10:10.466688","CLASSIFICATION_TYPE":"U","MEAN_MOTION":14.34217521,"ECCENTRICITY":0.00021359,"INCLINATION":86.3935,"RA_OF_ASC_NODE":44.6157,"ARG_OF_PERICENTER":85.4019,"MEAN_ANOMALY":274.7421,"EPHEMERIS_TYPE":0,"NORAD_CAT_ID":43578,"ELEMENT_SET_NO":999,"REV_AT_EPOCH":41752,"BSTAR":0.000009462956,"MEAN_MOTION_DOT":4.6e-7,"MEAN_MOTION_DDOT":0},{"OBJECT_NAME":"IRIDIUM 180","OBJECT_ID":"2019-002A","EPOCH":"2026-07-16T03:49:54.958368","CLASSIFICATION_TYPE":"U","MEAN_MOTION":14.34217655,"ECCENTRICITY":0.00021661,"INCLINATION":86.3991,"RA_OF_ASC_NODE":341.4859,"ARG_OF_PERICENTER":92.4528,"MEAN_ANOMALY":267.6915,"EPHEMERIS_TYPE":0,"NORAD_CAT_ID":43922,"ELEMENT_SET_NO":999,"REV_AT_EPOCH":39314,"BSTAR":0.000031179602,"MEAN_MOTION_DOT":0.00000107,"MEAN_MOTION_DDOT":0},{"OBJECT_NAME":"IRIDIUM 176","OBJECT_ID":"2019-002B","EPOCH":"2026-07-15T21:49:35.750784","CLASSIFICATION_TYPE":"U","MEAN_MOTION":14.72249564,"ECCENTRICITY":0.0002334,"INCLINATION":86.6112,"RA_OF_ASC_NODE":341.53,"ARG_OF_PERICENTER":90.1985,"MEAN_ANOMALY":269.95,"EPHEMERIS_TYPE":0,"NORAD_CAT_ID":43923,"ELEMENT_SET_NO":999,"REV_AT_EPOCH":40347,"BSTAR":0.000055958,"MEAN_MOTION_DOT":0.00000377,"MEAN_MOTION_DDOT":0},{"OBJECT_NAME":"IRIDIUM 168","OBJECT_ID":"2019-002C","EPOCH":"2026-07-15T22:39:22.972032","CLASSIFICATION_TYPE":"U","MEAN_MOTION":14.3421662,"ECCENTRICITY":0.0002114,"INCLINATION":86.3989,"RA_OF_ASC_NODE":341.6542,"ARG_OF_PERICENTER":91.4243,"MEAN_ANOMALY":268.7195,"EPHEMERIS_TYPE":0,"NORAD_CAT_ID":43924,"ELEMENT_SET_NO":999,"REV_AT_EPOCH":39309,"BSTAR":-0.000013198,"MEAN_MOTION_DOT":-1.7e-7,"MEAN_MOTION_DDOT":0},{"OBJECT_NAME":"IRIDIUM 173","OBJECT_ID":"2019-002D","EPOCH":"2026-07-15T22:21:06.999264","CLASSIFICATION_TYPE":"U","MEAN_MOTION":14.34216721,"ECCENTRICITY":0.0002132,"INCLINATION":86.3986,"RA_OF_ASC_NODE":341.5475,"ARG_OF_PERICENTER":93.6953,"MEAN_ANOMALY":266.4487,"EPHEMERIS_TYPE":0,"NORAD_CAT_ID":43925,"ELEMENT_SET_NO":999,"REV_AT_EPOCH":39307,"BSTAR":-0.000032787,"MEAN_MOTION_DOT":-7.2e-7,"MEAN_MOTION_DDOT":0},{"OBJECT_NAME":"IRIDIUM 169","OBJECT_ID":"2019-002E","EPOCH":"2026-07-15T23:29:22.399008","CLASSIFICATION_TYPE":"U","MEAN_MOTION":14.38613387,"ECCENTRICITY":0.00019246,"INCLINATION":86.4222,"RA_OF_ASC_NODE":13.1522,"ARG_OF_PERICENTER":104.3747,"MEAN_ANOMALY":255.7665,"EPHEMERIS_TYPE":0,"NORAD_CAT_ID":43926,"ELEMENT_SET_NO":999,"REV_AT_EPOCH":39436,"BSTAR":0.000009409573,"MEAN_MOTION_DOT":4.9e-7,"MEAN_MOTION_DDOT":0},{"OBJECT_NAME":"IRIDIUM 172","OBJECT_ID":"2019-002F","EPOCH":"2026-07-16T03:13:23.029248","CLASSIFICATION_TYPE":"U","MEAN_MOTION":14.34217511,"ECCENTRICITY":0.00021907,"INCLINATION":86.399,"RA_OF_ASC_NODE":341.4702,"ARG_OF_PERICENTER":90.9573,"MEAN_ANOMALY":269.1874,"EPHEMERIS_TYPE":0,"NORAD_CAT_ID":43927,"ELEMENT_SET_NO":999,"REV_AT_EPOCH":39311,"BSTAR":0.000001267633,"MEAN_MOTION_DOT":2.3e-7,"MEAN_MOTION_DDOT":0},{"OBJECT_NAME":"IRIDIUM 175","OBJECT_ID":"2019-002G","EPOCH":"2026-07-16T04:19:11.752032","CLASSIFICATION_TYPE":"U","MEAN_MOTION":14.43627574,"ECCENTRICITY":0.00053554,"INCLINATION":86.4512,"RA_OF_ASC_NODE":278.4025,"ARG_OF_PERICENTER":113.3442,"MEAN_ANOMALY":246.8323,"EPHEMERIS_TYPE":0,"NORAD_CAT_ID":43928,"ELEMENT_SET_NO":999,"REV_AT_EPOCH":40316,"BSTAR":0.000046495984,"MEAN_MOTION_DOT":0.00000178,"MEAN_MOTION_DDOT":0},{"OBJECT_NAME":"IRIDIUM 171","OBJECT_ID":"2019-002H","EPOCH":"2026-07-15T21:44:34.968192","CLASSIFICATION_TYPE":"U","MEAN_MOTION":14.34217724,"ECCENTRICITY":0.0002239,"INCLINATION":86.4,"RA_OF_ASC_NODE":341.8749,"ARG_OF_PERICENTER":95.1181,"MEAN_ANOMALY":265.0271,"EPHEMERIS_TYPE":0,"NORAD_CAT_ID":43929,"ELEMENT_SET_NO":999,"REV_AT_EPOCH":39307,"BSTAR":0.0000079405,"MEAN_MOTION_DOT":4.2e-7,"MEAN_MOTION_DDOT":0},{"OBJECT_NAME":"IRIDIUM 170","OBJECT_ID":"2019-002J","EPOCH":"2026-07-16T07:45:43.322976","CLASSIFICATION_TYPE":"U","MEAN_MOTION":14.72250408,"ECCENTRICITY":0.00022523,"INCLINATION":86.6112,"RA_OF_ASC_NODE":341.3591,"ARG_OF_PERICENTER":86.7688,"MEAN_ANOMALY":273.3787,"EPHEMERIS_TYPE":0,"NORAD_CAT_ID":43930,"ELEMENT_SET_NO":999,"REV_AT_EPOCH":40354,"BSTAR":0.000055260267,"MEAN_MOTION_DOT":0.00000373,"MEAN_MOTION_DDOT":0},{"OBJECT_NAME":"IRIDIUM 167","OBJECT_ID":"2019-002K","EPOCH":"2026-07-15T21:35:26.954592","CLASSIFICATION_TYPE":"U","MEAN_MOTION":14.34217723,"ECCENTRICITY":0.0002308,"INCLINATION":86.3992,"RA_OF_ASC_NODE":341.591,"ARG_OF_PERICENTER":98.49,"MEAN_ANOMALY":261.6557,"EPHEMERIS_TYPE":0,"NORAD_CAT_ID":43931,"ELEMENT_SET_NO":999,"REV_AT_EPOCH":39307,"BSTAR":0.0000039707,"MEAN_MOTION_DOT":3.1e-7,"MEAN_MOTION_DDOT":0},{"OBJECT_NAME":"IRIDIUM 181","OBJECT_ID":"2023-068S","EPOCH":"2026-07-15T12:45:21.585312","CLASSIFICATION_TYPE":"U","MEAN_MOTION":14.43312397,"ECCENTRICITY":0.00024121,"INCLINATION":86.4474,"RA_OF_ASC_NODE":44.9372,"ARG_OF_PERICENTER":83.4871,"MEAN_ANOMALY":276.6605,"EPHEMERIS_TYPE":0,"NORAD_CAT_ID":56726,"ELEMENT_SET_NO":999,"REV_AT_EPOCH":16652,"BSTAR":0.000045155381,"MEAN_MOTION_DOT":0.00000172,"MEAN_MOTION_DDOT":0},{"OBJECT_NAME":"IRIDIUM 177","OBJECT_ID":"2023-068T","EPOCH":"2026-07-16T06:12:40.218912","CLASSIFICATION_TYPE":"U","MEAN_MOTION":14.8002473,"ECCENTRICITY":0.00021837,"INCLINATION":86.1986,"RA_OF_ASC_NODE":314.9892,"ARG_OF_PERICENTER":95.508,"MEAN_ANOMALY":264.639,"EPHEMERIS_TYPE":0,"NORAD_CAT_ID":56727,"ELEMENT_SET_NO":999,"REV_AT_EPOCH":17066,"BSTAR":0.000069007349,"MEAN_MOTION_DOT":0.00000548,"MEAN_MOTION_DDOT":0},{"OBJECT_NAME":"IRIDIUM 174","OBJECT_ID":"2023-068U","EPOCH":"2026-07-15T21:40:33.354912","CLASSIFICATION_TYPE":"U","MEAN_MOTION":14.72258769,"ECCENTRICITY":0.0001983,"INCLINATION":86.612,"RA_OF_ASC_NODE":341.685,"ARG_OF_PERICENTER":88.3147,"MEAN_ANOMALY":271.8297,"EPHEMERIS_TYPE":0,"NORAD_CAT_ID":56728,"ELEMENT_SET_NO":999,"REV_AT_EPOCH":17024,"BSTAR":0.000057649,"MEAN_MOTION_DOT":0.00000388,"MEAN_MOTION_DDOT":0},{"OBJECT_NAME":"IRIDIUM 178","OBJECT_ID":"2023-068V","EPOCH":"2026-07-15T21:50:01.740768","CLASSIFICATION_TYPE":"U","MEAN_MOTION":14.80026522,"ECCENTRICITY":0.0002309,"INCLINATION":86.6536,"RA_OF_ASC_NODE":13.3547,"ARG_OF_PERICENTER":90.9107,"MEAN_ANOMALY":269.2379,"EPHEMERIS_TYPE":0,"NORAD_CAT_ID":56729,"ELEMENT_SET_NO":999,"REV_AT_EPOCH":17061,"BSTAR":0.000020564,"MEAN_MOTION_DOT":0.00000182,"MEAN_MOTION_DDOT":0},{"OBJECT_NAME":"IRIDIUM 179","OBJECT_ID":"2023-068W","EPOCH":"2026-07-15T00:36:38.349504","CLASSIFICATION_TYPE":"U","MEAN_MOTION":14.80033495,"ECCENTRICITY":0.00023212,"INCLINATION":86.6767,"RA_OF_ASC_NODE":22.7863,"ARG_OF_PERICENTER":93.3552,"MEAN_ANOMALY":266.7935,"EPHEMERIS_TYPE":0,"NORAD_CAT_ID":56730,"ELEMENT_SET_NO":999,"REV_AT_EPOCH":17048,"BSTAR":0.000014650918,"MEAN_MOTION_DOT":0.00000137,"MEAN_MOTION_DDOT":0}]}
